start=new Date('2022-12-24T00:00:00.000Z').valueOf();
sats=[{"REF_FRAME":"TEME","EPHEMERIS_TYPE":"0","NORAD_CAT_ID":"53530","DECAY_DATE":null,"INCLINATION":"53.2166","ECCENTRICITY":"0.00016560","APOAPSIS":"540.906","ELEMENT_SET_NO":"999","MEAN_MOTION":"15.08835024","GP_ID":"221277955","TIME_SYSTEM":"UTC","CENTER_NAME":"EARTH","PERIOD":"95.438","BSTAR":"0.00004496400000","REV_AT_EPOCH":"1916","MEAN_MOTION_DDOT":"0.0000000000000","MEAN_ELEMENT_THEORY":"SGP4","ARG_OF_PERICENTER":"35.6602","RA_OF_ASC_NODE":"297.4038","MEAN_MOTION_DOT":"0.00000428","TLE_LINE2":"2 53530  53.2166 297.4038 0001656  35.6602 324.4501 15.08835024 19166","CLASSIFICATION_TYPE":"U","FILE":"3720302","OBJECT_TYPE":"PAYLOAD","PERIAPSIS":"538.615","EPOCH":"2022-12-23T06:00:23.431680","RCS_SIZE":"LARGE","COUNTRY_CODE":"US","TLE_LINE1":"1 53530U 22101D   22357.25027120  .00000428  00000-0  44964-4 0  9995","LAUNCH_DATE":"2022-08-19","OBJECT_NAME":"STARLINK-4482","MEAN_ANOMALY":"324.4501","OBJECT_ID":"2022-101D","SITE":"AFETR","SEMIMAJOR_AXIS":"6917.896"},{"DECAY_DATE":null,"INCLINATION":"53.2162","NORAD_CAT_ID":"53531","EPHEMERIS_TYPE":"0","REF_FRAME":"TEME","GP_ID":"221278157","APOAPSIS":"541.629","ECCENTRICITY":"0.00026220","ELEMENT_SET_NO":"999","MEAN_MOTION":"15.08817127","BSTAR":"0.00005709700000","CENTER_NAME":"EARTH","TIME_SYSTEM":"UTC","PERIOD":"95.439","ARG_OF_PERICENTER":"28.0503","RA_OF_ASC_NODE":"297.3923","REV_AT_EPOCH":"1916","MEAN_ELEMENT_THEORY":"SGP4","MEAN_MOTION_DDOT":"0.0000000000000","CLASSIFICATION_TYPE":"U","MEAN_MOTION_DOT":"0.00000620","TLE_LINE2":"2 53531  53.2162 297.3923 0002622  28.0503 332.0630 15.08817127 19167","COUNTRY_CODE":"US","EPOCH":"2022-12-23T06:04:19.376256","RCS_SIZE":"LARGE","TLE_LINE1":"1 53531U 22101E   22357.25300204  .00000620  00000-0  57097-4 0  9998","FILE":"3720302","OBJECT_TYPE":"PAYLOAD","PERIAPSIS":"538.001","MEAN_ANOMALY":"332.0630","OBJECT_NAME":"STARLINK-4487","LAUNCH_DATE":"2022-08-19","SEMIMAJOR_AXIS":"6917.950","SITE":"AFETR","OBJECT_ID":"2022-101E"},{"DECAY_DATE":null,"INCLINATION":"53.2169","REF_FRAME":"TEME","NORAD_CAT_ID":"53532","EPHEMERIS_TYPE":"0","GP_ID":"221309562","ECCENTRICITY":"0.00018820","APOAPSIS":"541.046","ELEMENT_SET_NO":"999","MEAN_MOTION":"15.08840521","BSTAR":"0.00009754600000","CENTER_NAME":"EARTH","TIME_SYSTEM":"UTC","PERIOD":"95.438","ARG_OF_PERICENTER":"56.3205","RA_OF_ASC_NODE":"294.8692","REV_AT_EPOCH":"1925","MEAN_MOTION_DDOT":"0.0000000000000","MEAN_ELEMENT_THEORY":"SGP4","CLASSIFICATION_TYPE":"U","MEAN_MOTION_DOT":"0.00001265","TLE_LINE2":"2 53532  53.2169 294.8692 0001882  56.3205 303.7966 15.08840521 19251","RCS_SIZE":"LARGE","EPOCH":"2022-12-23T19:35:05.499168","COUNTRY_CODE":"US","TLE_LINE1":"1 53532U 22101F   22357.81603587  .00001265  00000-0  97546-4 0  9990","FILE":"3720518","OBJECT_TYPE":"PAYLOAD","PERIAPSIS":"538.442","MEAN_ANOMALY":"303.7966","LAUNCH_DATE":"2022-08-19","OBJECT_NAME":"STARLINK-4483","SEMIMAJOR_AXIS":"6917.879","SITE":"AFETR","OBJECT_ID":"2022-101F"},{"BSTAR":"0.00021764000000","CENTER_NAME":"EARTH","TIME_SYSTEM":"UTC","PERIOD":"95.437","ARG_OF_PERICENTER":"57.5977","RA_OF_ASC_NODE":"294.8795","REV_AT_EPOCH":"1925","MEAN_MOTION_DDOT":"0.0000000000000","MEAN_ELEMENT_THEORY":"SGP4","DECAY_DATE":null,"INCLINATION":"53.2180","REF_FRAME":"TEME","NORAD_CAT_ID":"53533","EPHEMERIS_TYPE":"0","GP_ID":"221309747","ECCENTRICITY":"0.00017600","APOAPSIS":"540.955","MEAN_MOTION":"15.08842494","ELEMENT_SET_NO":"999","MEAN_ANOMALY":"302.5185","LAUNCH_DATE":"2022-08-19","OBJECT_NAME":"STARLINK-4493","SEMIMAJOR_AXIS":"6917.873","SITE":"AFETR","OBJECT_ID":"2022-101G","CLASSIFICATION_TYPE":"U","MEAN_MOTION_DOT":"0.00003178","TLE_LINE2":"2 53533  53.2180 294.8795 0001760  57.5977 302.5185 15.08842494 19254","RCS_SIZE":"LARGE","EPOCH":"2022-12-23T19:31:10.406496","COUNTRY_CODE":"US","TLE_LINE1":"1 53533U 22101G   22357.81331489  .00003178  00000-0  21764-3 0  9993","FILE":"3720518","OBJECT_TYPE":"PAYLOAD","PERIAPSIS":"538.520"},{"REV_AT_EPOCH":"1926","MEAN_MOTION_DDOT":"0.0000000000000","MEAN_ELEMENT_THEORY":"SGP4","ARG_OF_PERICENTER":"34.2236","RA_OF_ASC_NODE":"294.6339","TIME_SYSTEM":"UTC","CENTER_NAME":"EARTH","PERIOD":"95.437","BSTAR":"0.00022628000000","ECCENTRICITY":"0.00025030","APOAPSIS":"541.469","ELEMENT_SET_NO":"999","MEAN_MOTION":"15.08842756","GP_ID":"221308759","REF_FRAME":"TEME","NORAD_CAT_ID":"53534","EPHEMERIS_TYPE":"0","DECAY_DATE":null,"INCLINATION":"53.2191","OBJECT_ID":"2022-101H","SITE":"AFETR","SEMIMAJOR_AXIS":"6917.872","LAUNCH_DATE":"2022-08-19","OBJECT_NAME":"STARLINK-4488","MEAN_ANOMALY":"325.8917","FILE":"3720518","PERIAPSIS":"538.005","OBJECT_TYPE":"PAYLOAD","RCS_SIZE":"LARGE","EPOCH":"2022-12-23T20:49:16.773600","COUNTRY_CODE":"US","TLE_LINE1":"1 53534U 22101H   22357.86755525  .00003315  00000-0  22628-3 0  9993","MEAN_MOTION_DOT":"0.00003315","TLE_LINE2":"2 53534  53.2191 294.6339 0002503  34.2236 325.8917 15.08842756 19268","CLASSIFICATION_TYPE":"U"},{"MEAN_ANOMALY":"325.0069","OBJECT_NAME":"STARLINK-4138","LAUNCH_DATE":"2022-08-19","SITE":"AFETR","SEMIMAJOR_AXIS":"6917.880","OBJECT_ID":"2022-101J","CLASSIFICATION_TYPE":"U","TLE_LINE2":"2 53535  53.2194 294.6000 0002177  35.1067 325.0069 15.08840073 19266","MEAN_MOTION_DOT":"0.00002660","TLE_LINE1":"1 53535U 22101J   22357.87491680  .00002660  00000-0  18518-3 0  9999","COUNTRY_CODE":"US","RCS_SIZE":"LARGE","EPOCH":"2022-12-23T20:59:52.811520","OBJECT_TYPE":"PAYLOAD","PERIAPSIS":"538.239","FILE":"3720518","BSTAR":"0.00018518000000","PERIOD":"95.438","CENTER_NAME":"EARTH","TIME_SYSTEM":"UTC","RA_OF_ASC_NODE":"294.6000","ARG_OF_PERICENTER":"35.1067","MEAN_ELEMENT_THEORY":"SGP4","MEAN_MOTION_DDOT":"0.0000000000000","REV_AT_EPOCH":"1926","INCLINATION":"53.2194","DECAY_DATE":null,"NORAD_CAT_ID":"53535","EPHEMERIS_TYPE":"0","REF_FRAME":"TEME","GP_ID":"221308965","ELEMENT_SET_NO":"999","MEAN_MOTION":"15.08840073","APOAPSIS":"541.251","ECCENTRICITY":"0.00021770"},{"OBJECT_ID":"2022-101K","SEMIMAJOR_AXIS":"6922.798","SITE":"AFETR","OBJECT_NAME":"STARLINK-4053","LAUNCH_DATE":"2022-08-19","MEAN_ANOMALY":"317.2144","FILE":"3720518","OBJECT_TYPE":"PAYLOAD","PERIAPSIS":"542.925","COUNTRY_CODE":"US","EPOCH":"2022-12-23T19:30:14.859072","RCS_SIZE":"LARGE","TLE_LINE1":"1 53536U 22101K   22357.81267198  .00012454  00000-0  83467-3 0  9996","MEAN_MOTION_DOT":"0.00012454","TLE_LINE2":"2 53536  53.2163 284.4130 0002510  42.9043 317.2144 15.07232545 19394","CLASSIFICATION_TYPE":"U","REV_AT_EPOCH":"1939","MEAN_ELEMENT_THEORY":"SGP4","MEAN_MOTION_DDOT":"0.0000000000000","ARG_OF_PERICENTER":"42.9043","RA_OF_ASC_NODE":"284.4130","TIME_SYSTEM":"UTC","CENTER_NAME":"EARTH","PERIOD":"95.539","BSTAR":"0.00083467000000","APOAPSIS":"546.401","ECCENTRICITY":"0.00025100","MEAN_MOTION":"15.07232545","ELEMENT_SET_NO":"999","GP_ID":"221309171","EPHEMERIS_TYPE":"0","NORAD_CAT_ID":"53536","REF_FRAME":"TEME","DECAY_DATE":null,"INCLINATION":"53.2163"},{"INCLINATION":"53.2197","DECAY_DATE":null,"REF_FRAME":"TEME","EPHEMERIS_TYPE":"0","NORAD_CAT_ID":"53537","GP_ID":"221281994","ELEMENT_SET_NO":"999","MEAN_MOTION":"15.08840722","ECCENTRICITY":"0.00022390","APOAPSIS":"541.292","BSTAR":"0.00022252000000","PERIOD":"95.438","TIME_SYSTEM":"UTC","CENTER_NAME":"EARTH","RA_OF_ASC_NODE":"294.8820","ARG_OF_PERICENTER":"42.5096","MEAN_MOTION_DDOT":"0.0000000000000","MEAN_ELEMENT_THEORY":"SGP4","REV_AT_EPOCH":"1925","CLASSIFICATION_TYPE":"U","TLE_LINE2":"2 53537  53.2197 294.8820 0002239  42.5096 317.6069 15.08840722 19253","MEAN_MOTION_DOT":"0.00003255","TLE_LINE1":"1 53537U 22101L   22357.81235844  .00003255  00000-0  22252-3 0  9994","EPOCH":"2022-12-23T19:29:47.769216","RCS_SIZE":"LARGE","COUNTRY_CODE":"US","OBJECT_TYPE":"PAYLOAD","PERIAPSIS":"538.194","FILE":"3720432","MEAN_ANOMALY":"317.6069","LAUNCH_DATE":"2022-08-19","OBJECT_NAME":"STARLINK-4120","SEMIMAJOR_AXIS":"6917.878","SITE":"AFETR","OBJECT_ID":"2022-101L"},{"MEAN_ANOMALY":"314.4797","LAUNCH_DATE":"2022-08-19","OBJECT_NAME":"STARLINK-4118","SITE":"AFETR","SEMIMAJOR_AXIS":"6917.886","OBJECT_ID":"2022-101M","CLASSIFICATION_TYPE":"U","TLE_LINE2":"2 53538  53.2164 284.6916 0001926  45.6352 314.4797 15.08838134 19394","MEAN_MOTION_DOT":"0.00004587","TLE_LINE1":"1 53538U 22101M   22357.85375305  .00004587  00000-0  30610-3 0  9992","RCS_SIZE":"LARGE","EPOCH":"2022-12-23T20:29:24.263520","COUNTRY_CODE":"US","OBJECT_TYPE":"PAYLOAD","PERIAPSIS":"538.419","FILE":"3720432","BSTAR":"0.00030610000000","PERIOD":"95.438","TIME_SYSTEM":"UTC","CENTER_NAME":"EARTH","RA_OF_ASC_NODE":"284.6916","ARG_OF_PERICENTER":"45.6352","MEAN_MOTION_DDOT":"0.0000000000000","MEAN_ELEMENT_THEORY":"SGP4","REV_AT_EPOCH":"1939","INCLINATION":"53.2164","DECAY_DATE":null,"REF_FRAME":"TEME","EPHEMERIS_TYPE":"0","NORAD_CAT_ID":"53538","GP_ID":"221282017","ELEMENT_SET_NO":"999","MEAN_MOTION":"15.08838134","ECCENTRICITY":"0.00019260","APOAPSIS":"541.083"},{"OBJECT_TYPE":"PAYLOAD","PERIAPSIS":"538.444","FILE":"3720432","TLE_LINE1":"1 53539U 22101N   22357.54003722  .00001147  00000-0  90179-4 0  9996","COUNTRY_CODE":"US","RCS_SIZE":"LARGE","EPOCH":"2022-12-23T12:57:39.215808","TLE_LINE2":"2 53539  53.2199 296.1032 0001883  54.1506 305.9661 15.08839736 19213","MEAN_MOTION_DOT":"0.00001147","CLASSIFICATION_TYPE":"U","OBJECT_ID":"2022-101N","SEMIMAJOR_AXIS":"6917.881","SITE":"AFETR","OBJECT_NAME":"STARLINK-4123","LAUNCH_DATE":"2022-08-19","MEAN_ANOMALY":"305.9661","ELEMENT_SET_NO":"999","MEAN_MOTION":"15.08839736","APOAPSIS":"541.049","ECCENTRICITY":"0.00018830","GP_ID":"221282018","EPHEMERIS_TYPE":"0","NORAD_CAT_ID":"53539","REF_FRAME":"TEME","INCLINATION":"53.2199","DECAY_DATE":null,"MEAN_ELEMENT_THEORY":"SGP4","MEAN_MOTION_DDOT":"0.0000000000000","REV_AT_EPOCH":"1921","RA_OF_ASC_NODE":"296.1032","ARG_OF_PERICENTER":"54.1506","PERIOD":"95.438","CENTER_NAME":"EARTH","TIME_SYSTEM":"UTC","BSTAR":"0.00009017900000"}];
